[{"OBJECT_NAME":"STARLINK-33680","OBJECT_ID":"2025-053Y","EPOCH":"2026-03-09T12:51:37.747584","MEAN_MOTION":15.27599733,"ECCENTRICITY":0.00010141,"INCLINATION":43.0018,"RA_OF_ASC_NODE":242.3219,"ARG_OF_PERICENTER":208.3718,"MEAN_ANOMALY":151.7079,"EPHEMERIS_TYPE":0,"CLASSIFICATION_TYPE":"U","NORAD_CAT_ID":63287,"ELEMENT_SET_NO":999,"REV_AT_EPOCH":5622,"BSTAR":0.00098198705,"MEAN_MOTION_DOT":0.00026875,"MEAN_MOTION_DDOT":0},{"OBJECT_NAME":"CZ-4C R\/B","OBJECT_ID":"2021-079B","EPOCH":"2026-03-09T14:04:29.438112","MEAN_MOTION":15.08928015,"ECCENTRICITY":0.0108377,"INCLINATION":98.3883,"RA_OF_ASC_NODE":282.6111,"ARG_OF_PERICENTER":26.1585,"MEAN_ANOMALY":334.506,"EPHEMERIS_TYPE":0,"CLASSIFICATION_TYPE":"U","NORAD_CAT_ID":49123,"ELEMENT_SET_NO":999,"REV_AT_EPOCH":24640,"BSTAR":0.00023549,"MEAN_MOTION_DOT":4.178e-5,"MEAN_MOTION_DDOT":0}]
